NORAD_CAT_ID,OBJECT_NAME,OBJECT_TYPE,EPOCH,MEAN_MOTION,ECCENTRICITY,INCLINATION,RA_OF_ASC_NODE,ARG_OF_PERICENTER,MEAN_ANOMALY,BSTAR,MEAN_MOTION_DOT,MEAN_MOTION_DDOT,TLE_LINE0,TLE_LINE1,TLE_LINE2,SEMIMAJOR_AXIS,PERIOD,APOGEE,PERIGEE,DECAYED
55633.0,STARLINK-5498,PAYLOAD,2023-09-25 09:41:44,14.98333611,0.0002886,69.9994,304.2961,263.8088,96.2742,8.8462e-05,9.63e-06,0.0,0 STARLINK-5498,1 55633U 23021F   23268.40398467  .00000963  00000-0  88462-4 0  9992,2 55633  69.9994 304.2961 0002886 263.8088  96.2742 14.98333611 33740,6950.182,96.107,574.053,570.041,0.0
55633.0,STARLINK-5498,PAYLOAD,2023-09-25 11:17:52,14.9833331,0.0002881,69.9994,304.1278,263.7938,96.2892,8.347e-05,9.03e-06,0.0,0 STARLINK-5498,1 55633U 23021F   23268.47074491  .00000903  00000-0  83470-4 0  9995,2 55633  69.9994 304.1278 0002881 263.7938  96.2892 14.98333310 34055,6950.183,96.107,574.05,570.045,0.0
55633.0,STARLINK-5498,PAYLOAD,2023-09-26 09:43:45,14.98333683,0.0002816,69.9994,301.7709,264.2945,95.7893,7.7831e-05,8.36e-06,0.0,0 STARLINK-5498,1 55633U 23021F   23269.40538286  .00000836  00000-0  77831-4 0  9995,2 55633  69.9994 301.7709 0002816 264.2945  95.7893 14.98333683 33898,6950.182,96.107,574.004,570.089,0.0
55633.0,STARLINK-5498,PAYLOAD,2023-09-26 11:19:53,14.98333665,0.0002839,69.9993,301.6024,265.7354,94.348,7.3038e-05,7.79e-06,0.0,0 STARLINK-5498,1 55633U 23021F   23269.47214291  .00000779  00000-0  73038-4 0  9990,2 55633  69.9993 301.6024 0002839 265.7354  94.3480 14.98333665 34204,6950.182,96.107,574.02,570.073,0.0
55633.0,STARLINK-5498,PAYLOAD,2023-09-27 09:45:46,14.98328756,0.0002914,69.9987,299.2453,266.9022,93.1804,2.0404e-05,1.5e-06,0.0,0 STARLINK-5498,1 55633U 23021F   23270.40678656  .00000150  00000-0  20404-4 0  9996,2 55633  69.9987 299.2453 0002914 266.9022  93.1804 14.98328756 34048,6950.197,96.107,574.087,570.036,0.0
55633.0,STARLINK-5498,PAYLOAD,2023-09-27 11:21:54,14.98328509,0.0002923,69.9987,299.0769,267.2657,92.8168,1.5071e-05,8.7e-07,0.0,0 STARLINK-5498,1 55633U 23021F   23270.47354687  .00000087  00000-0  15071-4 0  9991,2 55633  69.9987 299.0769 0002923 267.2657  92.8168 14.98328509 34353,6950.198,96.107,574.094,570.031,0.0
55633.0,STARLINK-5498,PAYLOAD,2023-09-28 11:23:55,14.98328059,0.0003004,69.9983,296.5515,269.8035,90.278,-2.0321e-06,-1.17e-06,0.0,0 STARLINK-5498,1 55633U 23021F   23271.47494837 -.00000117  00000-0 -20321-5 0  9995,2 55633  69.9983 296.5515 0003004 269.8035  90.2780 14.98328059 34205,6950.199,96.107,574.152,569.976,0.0
55633.0,STARLINK-5498,PAYLOAD,2023-09-29 11:25:56,14.98332839,0.0003079,69.9981,294.0265,270.2503,89.8303,0.00011321,1.258e-05,0.0,0 STARLINK-5498,1 55633U 23021F   23272.47634298  .00001258  00000-0  11321-3 0  9996,2 55633  69.9981 294.0265 0003079 270.2503  89.8303 14.98332839 34358,6950.184,96.107,574.189,569.909,0.0
55633.0,STARLINK-5498,PAYLOAD,2023-09-30 05:03:24,14.98330879,0.000302,69.9983,292.1745,273.7433,86.3381,0.00010145,1.118e-05,0.0,0 STARLINK-5498,1 55633U 23021F   23273.21070461  .00001118  00000-0  10145-3 0  9993,2 55633  69.9983 292.1745 0003020 273.7433  86.3381 14.98330879 34763,6950.19,96.107,574.154,569.956,0.0
55633.0,STARLINK-5498,PAYLOAD,2023-09-30 11:27:56,14.98333095,0.0003,69.9983,291.5008,272.6032,87.4784,0.00011877,1.325e-05,0.0,0 STARLINK-5498,1 55633U 23021F   23273.47774232  .00001325  00000-0  11877-3 0  9991,2 55633  69.9983 291.5008 0003000 272.6032  87.4784 14.98333095 34503,6950.183,96.107,574.133,569.963,0.0
55633.0,STARLINK-5498,PAYLOAD,2023-10-01 11:29:57,14.98333676,0.0002874,69.9986,288.9763,270.777,89.306,3.7344e-05,3.53e-06,0.0,0 STARLINK-5498,1 55633U 23021F   23274.47914245  .00000353  00000-0  37344-4 0  9990,2 55633  69.9986 288.9763 0002874 270.7770  89.3060 14.98333676 34659,6950.182,96.107,574.044,570.049,0.0
55633.0,STARLINK-5498,PAYLOAD,2023-10-01 17:54:30,14.98330674,0.000284,69.9986,288.3029,271.7656,88.3177,-1.6973e-05,-2.96e-06,0.0,0 STARLINK-5498,1 55633U 23021F   23274.74618537 -.00000296  00000-0 -16973-4 0  9998,2 55633  69.9986 288.3029 0002840 271.7656  88.3177 14.98330674 34995,6950.191,96.107,574.03,570.082,0.0
55633.0,STARLINK-5498,PAYLOAD,2023-10-02 09:55:51,14.9832952,0.0002861,69.9985,286.6195,271.3169,88.7662,-1.6421e-05,-2.89e-06,0.0,0 STARLINK-5498,1 55633U 23021F   23275.41378591 -.00000289  00000-0 -16421-4 0  9996,2 55633  69.9985 286.6195 0002861 271.3169  88.7662 14.98329520 34796,6950.194,96.107,574.048,570.071,0.0
55633.0,STARLINK-5498,PAYLOAD,2023-10-02 17:56:31,14.98330319,0.0002862,69.9985,285.7778,271.3411,88.742,2.6379e-05,2.22e-06,0.0,0 STARLINK-5498,1 55633U 23021F   23275.74758431  .00000222  00000-0  26379-4 0  9995,2 55633  69.9985 285.7778 0002862 271.3411  88.7420 14.98330319 35144,6950.192,96.107,574.046,570.068,0.0
55633.0,STARLINK-5498,PAYLOAD,2023-10-03 09:57:51,14.98334283,0.0002947,69.9982,284.0942,270.266,89.8161,7.0304e-05,7.46e-06,0.0,0 STARLINK-5498,1 55633U 23021F   23276.41517974  .00000746  00000-0  70304-4 0  9993,2 55633  69.9982 284.0942 0002947 270.2660  89.8161 14.98334283 34949,6950.18,96.107,574.093,569.996,0.0
55633.0,STARLINK-5498,PAYLOAD,2023-10-04 09:59:52,14.98329059,0.0002945,69.9981,281.569,270.4938,89.5884,6.214e-05,6.48e-06,0.0,0 STARLINK-5498,1 55633U 23021F   23277.41658442  .00000648  00000-0  62140-4 0  9990,2 55633  69.9981 281.5690 0002945 270.4938  89.5884 14.98329059 35099,6950.196,96.107,574.108,570.014,0.0
55633.0,STARLINK-5498,PAYLOAD,2023-10-04 18:00:33,14.98330754,0.0002938,69.9981,280.7272,270.2736,89.8086,5.0145e-05,5.05e-06,0.0,0 STARLINK-5498,1 55633U 23021F   23277.75038382  .00000505  00000-0  50145-4 0  9996,2 55633  69.9981 280.7272 0002938 270.2736  89.8086 14.98330754 35442,6950.191,96.107,574.098,570.014,0.0
55633.0,STARLINK-5498,PAYLOAD,2023-10-05 10:01:57,14.98285891,0.0002822,69.998,279.0436,271.2547,88.8289,-0.00048378,-5.854e-05,0.0,0 STARLINK-5498,1 55633U 23021F   23278.41802928 -.00005854  00000-0 -48378-3 0  9993,2 55633  69.9980 279.0436 0002822 271.2547  88.8289 14.98285891 35240,6950.329,96.11,574.156,570.233,0.0
55633.0,STARLINK-5498,PAYLOAD,2023-10-05 18:02:36,14.98310341,0.0003062,69.9978,278.2018,267.9933,92.0875,-0.00012953,-1.637e-05,0.0,0 STARLINK-5498,1 55633U 23021F   23278.75180969 -.00001637  00000-0 -12953-3 0  9999,2 55633  69.9978 278.2018 0003062 267.9933  92.0875 14.98310341 35294,6950.254,96.108,574.247,569.991,0.0
55633.0,STARLINK-5498,PAYLOAD,2023-10-06 02:03:15,14.98332229,0.0002593,69.9981,277.3602,272.0062,88.08,0.00013749,1.548e-05,0.0,0 STARLINK-5498,1 55633U 23021F   23279.08559372  .00001548  00000-0  13749-3 0  9997,2 55633  69.9981 277.3602 0002593 272.0062  88.0800 14.98332229 35343,6950.186,96.107,573.853,570.249,0.0
55633.0,STARLINK-5498,PAYLOAD,2023-10-06 10:03:55,14.98334542,0.0002366,69.9993,276.5183,284.0157,76.0739,0.00016588,1.887e-05,0.0,0 STARLINK-5498,1 55633U 23021F   23279.41939362  .00001887  00000-0  16588-3 0  9995,2 55633  69.9993 276.5183 0002366 284.0157  76.0739 14.98334542 35693,6950.179,96.107,573.688,570.399,0.0
55633.0,STARLINK-5498,PAYLOAD,2023-10-07 02:05:15,14.98346783,0.0002492,69.9983,274.8342,277.4205,82.6671,0.00028036,3.255e-05,0.0,0 STARLINK-5498,1 55633U 23021F   23280.08698096  .00003255  00000-0  28036-3 0  9998,2 55633  69.9983 274.8342 0002492 277.4205  82.6671 14.98346783 35496,6950.141,96.106,573.738,570.274,0.0
55633.0,STARLINK-5498,PAYLOAD,2023-10-07 08:29:47,14.98348072,0.0002608,69.9982,274.162,276.0446,84.0416,0.00035959,4.202e-05,0.0,0 STARLINK-5498,1 55633U 23021F   23280.35401702  .00004202  00000-0  35959-3 0  9999,2 55633  69.9982 274.1620 0002608 276.0446  84.0416 14.98348072 35832,6950.137,96.106,573.815,570.189,0.0
55633.0,STARLINK-5498,PAYLOAD,2023-10-07 16:30:28,14.98324997,0.0002459,69.9981,273.3207,275.0337,85.0542,0.00065978,7.787e-05,0.0,0 STARLINK-5498,1 55633U 23021F   23280.68782841  .00007787  00000-0  65978-3 0  9996,2 55633  69.9981 273.3207 0002459 275.0337  85.0542 14.98324997 35588,6950.208,96.107,573.782,570.364,0.0
55633.0,STARLINK-5498,PAYLOAD,2023-10-08 08:31:49,14.98341267,0.0001809,69.9996,271.6388,268.7476,91.3476,-8.6113e-05,-1.12e-05,0.0,0 STARLINK-5498,1 55633U 23021F   23281.35543006 -.00001120  00000-0 -86113-4 0  9991,2 55633  69.9996 271.6388 0001809 268.7476  91.3476 14.98341267 35985,6950.158,96.106,573.28,570.766,0.0
55633.0,STARLINK-5498,PAYLOAD,2023-10-08 16:32:29,14.98336918,0.000181,69.9996,270.7948,281.6585,78.4371,-3.5741e-05,-5.19e-06,0.0,0 STARLINK-5498,1 55633U 23021F   23281.68923019 -.00000519  00000-0 -35741-4 0  9995,2 55633  69.9996 270.7948 0001810 281.6585  78.4371 14.98336918 35734,6950.171,96.107,573.294,570.779,0.0
55633.0,STARLINK-5498,PAYLOAD,2023-10-09 02:09:16,14.98384246,0.000245,69.9987,269.7861,267.5408,92.547,-0.0008979,-0.00010805,0.0,0 STARLINK-5498,1 55633U 23021F   23282.08977343 -.00010805  00000-0 -89790-3 0  9990,2 55633  69.9987 269.7861 0002450 267.5408  92.5470 14.98384246 35794,6950.025,96.104,573.593,570.187,0.0
55633.0,STARLINK-5498,PAYLOAD,2023-10-09 08:33:49,14.98342537,0.000192,69.9993,269.1119,260.2264,99.8679,-8.2133e-05,-1.073e-05,0.0,0 STARLINK-5498,1 55633U 23021F   23282.35682086 -.00001073  00000-0 -82133-4 0  9999,2 55633  69.9993 269.1119 0001920 260.2264  99.8679 14.98342537 35835,6950.154,96.106,573.354,570.685,0.0
55633.0,STARLINK-5498,PAYLOAD,2023-10-09 10:09:57,14.98341791,0.0001937,69.9993,268.9438,260.3377,99.7563,-7.2e-05,-9.52e-06,0.0,0 STARLINK-5498,1 55633U 23021F   23282.42358076 -.00000952  00000-0 -72000-4 0  9993,2 55633  69.9993 268.9438 0001937 260.3377  99.7563 14.98341791 36147,6950.156,96.106,573.368,570.675,0.0
55633.0,STARLINK-5498,PAYLOAD,2023-10-09 16:34:28,14.98371335,0.0001867,70.0003,268.2704,279.48,80.6148,-0.00069423,-8.375e-05,0.0,0 STARLINK-5498,1 55633U 23021F   23282.69060894 -.00008375  00000-0 -69423-3 0  9991,2 55633  70.0003 268.2704 0001867 279.4800  80.6148 14.98371335 35880,6950.065,96.104,573.228,570.632,0.0
